{
  "type": "FeatureCollection",
  "features": [
    {
      "type": "Feature",
      "properties": {
        "norad_id": 31513,
        "name": "FENGYUN 1C DEB",
        "group": "fengyun-1c-debris",
        "lat": -24.05569888974954,
        "lon": -94.3241254145437,
        "alt_km": 790.9154978473489,
        "timestamp": "2025-12-18T19:29:52.827033+00:00",
        "meta_object_name": "FENGYUN 1C DEB",
        "meta_object_id": "1999-025BXC",
        "meta_epoch": "2025-11-25T02:15:23.832576",
        "meta_mean_motion": 14.32315683,
        "meta_eccentricity": 0.00282412,
        "meta_inclination": 98.8622,
        "meta_ra_of_asc_node": 65.435,
        "meta_arg_of_pericenter": 176.3464,
        "meta_mean_anomaly": 183.7931,
        "meta_ephemeris_type": 0,
        "meta_classification_type": "U",
        "meta_norad_cat_id": 31513,
        "meta_element_set_no": 999,
        "meta_rev_at_epoch": 72616,
        "meta_bstar": 0.0023967664,
        "meta_mean_motion_dot": 6.459e-05,
        "meta_mean_motion_ddot": 0,
        "tle_line1": "1 31513U 99025BXC 25329.09402584  .00006459  00000+0  23968-2 0  9994",
        "tle_line2": "2 31513  98.8622  65.4350 0028241 176.3464 183.7931 14.32315683726161"
      },
      "geometry": {
        "type": "Point",
        "coordinates": [
          -94.3241254145437,
          -24.05569888974954
        ]
      }
    },
    {
      "type": "Feature",
      "properties": {
        "norad_id": 31514,
        "name": "FENGYUN 1C DEB",
        "group": "fengyun-1c-debris",
        "lat": -46.66360734974286,
        "lon": 63.8928742089315,
        "alt_km": 852.9741160138219,
        "timestamp": "2025-12-18T19:29:52.827043+00:00",
        "meta_object_name": "FENGYUN 1C DEB",
        "meta_object_id": "1999-025BXD",
        "meta_epoch": "2025-12-15T16:04:54.041952",
        "meta_mean_motion": 14.2100456,
        "meta_eccentricity": 0.00529963,
        "meta_inclination": 99.2473,
        "meta_ra_of_asc_node": 250.5484,
        "meta_arg_of_pericenter": 106.4219,
        "meta_mean_anomaly": 254.2791,
        "meta_ephemeris_type": 0,
        "meta_classification_type": "U",
        "meta_norad_cat_id": 31514,
        "meta_element_set_no": 999,
        "meta_rev_at_epoch": 69366,
        "meta_bstar": 0.0011998748,
        "meta_mean_motion_dot": 2.591e-05,
        "meta_mean_motion_ddot": 0,
        "tle_line1": "1 31514U 99025BXD 25349.67006993  .00002591  00000+0  11999-2 0  9999",
        "tle_line2": "2 31514  99.2473 250.5484 0052996 106.4219 254.2791 14.21004560693665"
      },
      "geometry": {
        "type": "Point",
        "coordinates": [
          63.8928742089315,
          -46.66360734974286
        ]
      }
    },
    {
      "type": "Feature",
      "properties": {
        "norad_id": 31516,
        "name": "FENGYUN 1C DEB",
        "group": "fengyun-1c-debris",
        "lat": -64.64781255724921,
        "lon": 127.91540640647322,
        "alt_km": 781.5673533632589,
        "timestamp": "2025-12-18T19:29:52.827052+00:00",
        "meta_object_name": "FENGYUN 1C DEB",
        "meta_object_id": "1999-025BXF",
        "meta_epoch": "2025-12-17T19:16:00.966144",
        "meta_mean_motion": 14.25422649,
        "meta_eccentricity": 0.0148575,
        "meta_inclination": 98.8326,
        "meta_ra_of_asc_node": 107.7409,
        "meta_arg_of_pericenter": 223.8438,
        "meta_mean_anomaly": 290.4365,
        "meta_ephemeris_type": 0,
        "meta_classification_type": "U",
        "meta_norad_cat_id": 31516,
        "meta_element_set_no": 999,
        "meta_rev_at_epoch": 96564,
        "meta_bstar": 0.00039304897,
        "meta_mean_motion_dot": 9.94e-06,
        "meta_mean_motion_ddot": 0,
        "tle_line1": "1 31516U 99025BXF 25351.80278896  .00000994  00000+0  39305-3 0  9999",
        "tle_line2": "2 31516  98.8326 107.7409 0148575 223.8438 290.4365 14.25422649965640"
      },
      "geometry": {
        "type": "Point",
        "coordinates": [
          127.91540640647322,
          -64.64781255724921
        ]
      }
    },
    {
      "type": "Feature",
      "properties": {
        "norad_id": 31519,
        "name": "FENGYUN 1C DEB",
        "group": "fengyun-1c-debris",
        "lat": 7.812832341295738,
        "lon": -11.97775493763228,
        "alt_km": 845.4571087635113,
        "timestamp": "2025-12-18T19:29:52.827073+00:00",
        "meta_object_name": "FENGYUN 1C DEB",
        "meta_object_id": "1999-025BXJ",
        "meta_epoch": "2025-12-16T05:02:22.485408",
        "meta_mean_motion": 14.23406214,
        "meta_eccentricity": 0.00517987,
        "meta_inclination": 98.5737,
        "meta_ra_of_asc_node": 346.6729,
        "meta_arg_of_pericenter": 232.372,
        "meta_mean_anomaly": 127.2752,
        "meta_ephemeris_type": 0,
        "meta_classification_type": "U",
        "meta_norad_cat_id": 31519,
        "meta_element_set_no": 999,
        "meta_rev_at_epoch": 64814,
        "meta_bstar": 0.00043071182,
        "meta_mean_motion_dot": 9.48e-06,
        "meta_mean_motion_ddot": 0,
        "tle_line1": "1 31519U 99025BXJ 25350.20998247  .00000948  00000+0  43071-3 0  9998",
        "tle_line2": "2 31519  98.5737 346.6729 0051798 232.3720 127.2752 14.23406214648142"
      },
      "geometry": {
        "type": "Point",
        "coordinates": [
          -11.97775493763228,
          7.812832341295738
        ]
      }
    },
    {
      "type": "Feature",
      "properties": {
        "norad_id": 31522,
        "name": "FENGYUN 1C DEB",
        "group": "fengyun-1c-debris",
        "lat": 19.05785493342883,
        "lon": 7.732884694947261,
        "alt_km": 910.173417880269,
        "timestamp": "2025-12-18T19:29:52.827084+00:00",
        "meta_object_name": "FENGYUN 1C DEB",
        "meta_object_id": "1999-025BXM",
        "meta_epoch": "2025-12-15T00:45:25.066368",
        "meta_mean_motion": 14.04003017,
        "meta_eccentricity": 0.00431798,
        "meta_inclination": 98.7072,
        "meta_ra_of_asc_node": 7.1449,
        "meta_arg_of_pericenter": 193.8575,
        "meta_mean_anomaly": 166.1411,
        "meta_ephemeris_type": 0,
        "meta_classification_type": "U",
        "meta_norad_cat_id": 31522,
        "meta_element_set_no": 999,
        "meta_rev_at_epoch": 95028,
        "meta_bstar": 0.00045521963,
        "meta_mean_motion_dot": 6.84e-06,
        "meta_mean_motion_ddot": 0,
        "tle_line1": "1 31522U 99025BXM 25349.03154012  .00000684  00000+0  45522-3 0  9995",
        "tle_line2": "2 31522  98.7072   7.1449 0043179 193.8575 166.1411 14.04003017950289"
      },
      "geometry": {
        "type": "Point",
        "coordinates": [
          7.732884694947261,
          19.05785493342883
        ]
      }
    },
    {
      "type": "Feature",
      "properties": {
        "norad_id": 31523,
        "name": "FENGYUN 1C DEB",
        "group": "fengyun-1c-debris",
        "lat": 76.28724821728379,
        "lon": 1.060559836643475,
        "alt_km": 811.2449060393774,
        "timestamp": "2025-12-18T19:29:52.827094+00:00",
        "meta_object_name": "FENGYUN 1C DEB",
        "meta_object_id": "1999-025BXN",
        "meta_epoch": "2025-12-18T02:17:42.552960",
        "meta_mean_motion": 14.13860668,
        "meta_eccentricity": 0.00394665,
        "meta_inclination": 98.7566,
        "meta_ra_of_asc_node": 39.531,
        "meta_arg_of_pericenter": 95.1918,
        "meta_mean_anomaly": 298.0201,
        "meta_ephemeris_type": 0,
        "meta_classification_type": "U",
        "meta_norad_cat_id": 31523,
        "meta_element_set_no": 999,
        "meta_rev_at_epoch": 96083,
        "meta_bstar": 2.5195639e-05,
        "meta_mean_motion_dot": 5e-08,
        "meta_mean_motion_ddot": 0,
        "tle_line1": "1 31523U 99025BXN 25352.09563140  .00000005  00000+0  25196-4 0  9995",
        "tle_line2": "2 31523  98.7566  39.5310 0039466  95.1918 298.0201 14.13860668960830"
      },
      "geometry": {
        "type": "Point",
        "coordinates": [
          1.060559836643475,
          76.28724821728379
        ]
      }
    },
    {
      "type": "Feature",
      "properties": {
        "norad_id": 31527,
        "name": "FENGYUN 1C DEB",
        "group": "fengyun-1c-debris",
        "lat": -18.44079365651079,
        "lon": 160.5008775082401,
        "alt_km": 975.6654630389212,
        "timestamp": "2025-12-18T19:29:52.827104+00:00",
        "meta_object_name": "FENGYUN 1C DEB",
        "meta_object_id": "1999-025BXS",
        "meta_epoch": "2025-12-13T21:39:09.060480",
        "meta_mean_motion": 13.23403725,
        "meta_eccentricity": 0.04500793,
        "meta_inclination": 98.8924,
        "meta_ra_of_asc_node": 153.3063,
        "meta_arg_of_pericenter": 297.5489,
        "meta_mean_anomaly": 58.059,
        "meta_ephemeris_type": 0,
        "meta_classification_type": "U",
        "meta_norad_cat_id": 31527,
        "meta_element_set_no": 999,
        "meta_rev_at_epoch": 90205,
        "meta_bstar": 0.00080308436,
        "meta_mean_motion_dot": 5.44e-06,
        "meta_mean_motion_ddot": 0,
        "tle_line1": "1 31527U 99025BXS 25347.90218820  .00000544  00000+0  80308-3 0  9998",
        "tle_line2": "2 31527  98.8924 153.3063 0450079 297.5489  58.0590 13.23403725902053"
      },
      "geometry": {
        "type": "Point",
        "coordinates": [
          160.5008775082401,
          -18.44079365651079
        ]
      }
    }
  ]
}